{
  "type": "FeatureCollection",
  "features": [
    {
      "type": "Feature",
      "properties": {
        "norad_id": 35130,
        "name": "FENGYUN 1C DEB",
        "group": "fengyun-1c-debris",
        "lat": -39.54897570577206,
        "lon": -151.36168556179604,
        "alt_km": 567.4519940968748,
        "timestamp": "2025-12-21T03:56:51.122564+00:00",
        "meta_object_name": "FENGYUN 1C DEB",
        "meta_object_id": "1999-025DLJ",
        "meta_epoch": "2025-12-17T20:09:13.141152",
        "meta_mean_motion": 15.01150663,
        "meta_eccentricity": 0.00111617,
        "meta_inclination": 99.0323,
        "meta_ra_of_asc_node": 197.2276,
        "meta_arg_of_pericenter": 55.756,
        "meta_mean_anomaly": 304.4716,
        "meta_ephemeris_type": 0,
        "meta_classification_type": "U",
        "meta_norad_cat_id": 35130,
        "meta_element_set_no": 999,
        "meta_rev_at_epoch": 64990,
        "meta_bstar": 0.0063470097,
        "meta_mean_motion_dot": 0.00082289,
        "meta_mean_motion_ddot": 0,
        "tle_line1": "1 35130U 99025DLJ 25351.83973543  .00082289  00000+0  63470-2 0  9995",
        "tle_line2": "2 35130  99.0323 197.2276 0011161  55.7560 304.4716 15.01150663649903"
      },
      "geometry": {
        "type": "Point",
        "coordinates": [
          -151.36168556179604,
          -39.54897570577206
        ]
      }
    },
    {
      "type": "Feature",
      "properties": {
        "norad_id": 35135,
        "name": "FENGYUN 1C DEB",
        "group": "fengyun-1c-debris",
        "lat": -53.707725984766505,
        "lon": 171.8928037676436,
        "alt_km": 771.0543854019043,
        "timestamp": "2025-12-21T03:56:51.122573+00:00",
        "meta_object_name": "FENGYUN 1C DEB",
        "meta_object_id": "1999-025DLP",
        "meta_epoch": "2025-12-16T18:10:55.660224",
        "meta_mean_motion": 14.22547917,
        "meta_eccentricity": 0.00807653,
        "meta_inclination": 98.5647,
        "meta_ra_of_asc_node": 359.4515,
        "meta_arg_of_pericenter": 272.6039,
        "meta_mean_anomaly": 86.5896,
        "meta_ephemeris_type": 0,
        "meta_classification_type": "U",
        "meta_norad_cat_id": 35135,
        "meta_element_set_no": 999,
        "meta_rev_at_epoch": 87881,
        "meta_bstar": 0.00044907129,
        "meta_mean_motion_dot": 9.93e-06,
        "meta_mean_motion_ddot": 0,
        "tle_line1": "1 35135U 99025DLP 25350.75758866  .00000993  00000+0  44907-3 0  9996",
        "tle_line2": "2 35135  98.5647 359.4515 0080765 272.6039  86.5896 14.22547917878811"
      },
      "geometry": {
        "type": "Point",
        "coordinates": [
          171.8928037676436,
          -53.707725984766505
        ]
      }
    },
    {
      "type": "Feature",
      "properties": {
        "norad_id": 35139,
        "name": "FENGYUN 1C DEB",
        "group": "fengyun-1c-debris",
        "lat": -73.29032439301072,
        "lon": 30.35747356975897,
        "alt_km": 780.9707608574408,
        "timestamp": "2025-12-21T03:56:51.122582+00:00",
        "meta_object_name": "FENGYUN 1C DEB",
        "meta_object_id": "1999-025DLT",
        "meta_epoch": "2025-12-17T05:40:19.572096",
        "meta_mean_motion": 14.2110105,
        "meta_eccentricity": 0.0067913,
        "meta_inclination": 98.584,
        "meta_ra_of_asc_node": 356.3312,
        "meta_arg_of_pericenter": 284.2558,
        "meta_mean_anomaly": 75.1083,
        "meta_ephemeris_type": 0,
        "meta_classification_type": "U",
        "meta_norad_cat_id": 35139,
        "meta_element_set_no": 999,
        "meta_rev_at_epoch": 64217,
        "meta_bstar": 0.0003366611,
        "meta_mean_motion_dot": 7.05e-06,
        "meta_mean_motion_ddot": 0,
        "tle_line1": "1 35139U 99025DLT 25351.23633764  .00000705  00000+0  33666-3 0  9994",
        "tle_line2": "2 35139  98.5840 356.3312 0067913 284.2558  75.1083 14.21101050642179"
      },
      "geometry": {
        "type": "Point",
        "coordinates": [
          30.35747356975897,
          -73.29032439301072
        ]
      }
    },
    {
      "type": "Feature",
      "properties": {
        "norad_id": 35140,
        "name": "FENGYUN 1C DEB",
        "group": "fengyun-1c-debris",
        "lat": 22.23590282767411,
        "lon": -27.295768033798325,
        "alt_km": 780.1666572185404,
        "timestamp": "2025-12-21T03:56:51.122591+00:00",
        "meta_object_name": "FENGYUN 1C DEB",
        "meta_object_id": "1999-025DLU",
        "meta_epoch": "2025-12-18T04:53:13.752960",
        "meta_mean_motion": 14.21355497,
        "meta_eccentricity": 0.02903724,
        "meta_inclination": 98.445,
        "meta_ra_of_asc_node": 333.3496,
        "meta_arg_of_pericenter": 310.6842,
        "meta_mean_anomaly": 46.9429,
        "meta_ephemeris_type": 0,
        "meta_classification_type": "U",
        "meta_norad_cat_id": 35140,
        "meta_element_set_no": 999,
        "meta_rev_at_epoch": 87356,
        "meta_bstar": 0.00018673112,
        "meta_mean_motion_dot": 5.73e-06,
        "meta_mean_motion_ddot": 0,
        "tle_line1": "1 35140U 99025DLU 25352.20363140  .00000573  00000+0  18673-3 0  9996",
        "tle_line2": "2 35140  98.4450 333.3496 0290372 310.6842  46.9429 14.21355497873567"
      },
      "geometry": {
        "type": "Point",
        "coordinates": [
          -27.295768033798325,
          22.23590282767411
        ]
      }
    },
    {
      "type": "Feature",
      "properties": {
        "norad_id": 35142,
        "name": "FENGYUN 1C DEB",
        "group": "fengyun-1c-debris",
        "lat": 78.13667576411814,
        "lon": -143.5928826411577,
        "alt_km": 923.3483311715945,
        "timestamp": "2025-12-21T03:56:51.122600+00:00",
        "meta_object_name": "FENGYUN 1C DEB",
        "meta_object_id": "1999-025DLW",
        "meta_epoch": "2025-12-20T05:20:32.282304",
        "meta_mean_motion": 13.90510697,
        "meta_eccentricity": 0.0108018,
        "meta_inclination": 99.045,
        "meta_ra_of_asc_node": 346.1776,
        "meta_arg_of_pericenter": 193.6581,
        "meta_mean_anomaly": 232.9005,
        "meta_ephemeris_type": 0,
        "meta_classification_type": "U",
        "meta_norad_cat_id": 35142,
        "meta_element_set_no": 999,
        "meta_rev_at_epoch": 85793,
        "meta_bstar": 0.00017457,
        "meta_mean_motion_dot": 1.85e-06,
        "meta_mean_motion_ddot": 0,
        "tle_line1": "1 35142U 99025DLW 25354.22259586  .00000185  00000+0  17457-3 0  9998",
        "tle_line2": "2 35142  99.0450 346.1776 0108018 193.6581 232.9005 13.90510697857933"
      },
      "geometry": {
        "type": "Point",
        "coordinates": [
          -143.5928826411577,
          78.13667576411814
        ]
      }
    },
    {
      "type": "Feature",
      "properties": {
        "norad_id": 35144,
        "name": "FENGYUN 1C DEB",
        "group": "fengyun-1c-debris",
        "lat": -74.9465143028974,
        "lon": 145.61854793627836,
        "alt_km": 691.2127689067938,
        "timestamp": "2025-12-21T03:56:51.122609+00:00",
        "meta_object_name": "FENGYUN 1C DEB",
        "meta_object_id": "1999-025DLY",
        "meta_epoch": "2025-12-15T03:29:25.584864",
        "meta_mean_motion": 14.59259684,
        "meta_eccentricity": 0.00266192,
        "meta_inclination": 98.6997,
        "meta_ra_of_asc_node": 104.611,
        "meta_arg_of_pericenter": 353.8009,
        "meta_mean_anomaly": 6.2856,
        "meta_ephemeris_type": 0,
        "meta_classification_type": "U",
        "meta_norad_cat_id": 35144,
        "meta_element_set_no": 999,
        "meta_rev_at_epoch": 65248,
        "meta_bstar": 0.0015089834,
        "meta_mean_motion_dot": 7.114e-05,
        "meta_mean_motion_ddot": 0,
        "tle_line1": "1 35144U 99025DLY 25349.14543501  .00007114  00000+0  15090-2 0  9997",
        "tle_line2": "2 35144  98.6997 104.6110 0026619 353.8009   6.2856 14.59259684652487"
      },
      "geometry": {
        "type": "Point",
        "coordinates": [
          145.61854793627836,
          -74.9465143028974
        ]
      }
    },
    {
      "type": "Feature",
      "properties": {
        "norad_id": 35147,
        "name": "FENGYUN 1C DEB",
        "group": "fengyun-1c-debris",
        "lat": -31.54332405099978,
        "lon": -116.00529667777835,
        "alt_km": 637.4972603592978,
        "timestamp": "2025-12-21T03:56:51.122618+00:00",
        "meta_object_name": "FENGYUN 1C DEB",
        "meta_object_id": "1999-025DMB",
        "meta_epoch": "2025-12-19T23:18:14.635008",
        "meta_mean_motion": 14.74497353,
        "meta_eccentricity": 0.0027503,
        "meta_inclination": 99.4865,
        "meta_ra_of_asc_node": 68.4904,
        "meta_arg_of_pericenter": 177.3369,
        "meta_mean_anomaly": 182.7986,
        "meta_ephemeris_type": 0,
        "meta_classification_type": "U",
        "meta_norad_cat_id": 35147,
        "meta_element_set_no": 999,
        "meta_rev_at_epoch": 74411,
        "meta_bstar": 0.0014896,
        "meta_mean_motion_dot": 9.91e-05,
        "meta_mean_motion_ddot": 0,
        "tle_line1": "1 35147U 99025DMB 25353.97100272  .00009910  00000+0  14896-2 0  9999",
        "tle_line2": "2 35147  99.4865  68.4904 0027503 177.3369 182.7986 14.74497353744112"
      },
      "geometry": {
        "type": "Point",
        "coordinates": [
          -116.00529667777835,
          -31.54332405099978
        ]
      }
    }
  ]
}